{
    "links": {
        "self": "http://www.neowsapp.com/rest/v1/neo/3760342?api_key=iIulBulltgU6a56xZRHN4H3l9WmuAYTsLGpBGhQ2"
    },
    "id": "3760342",
    "neo_reference_id": "3760342",
    "name": "(2016 TS2)",
    "designation": "2016 TS2",
    "nasa_jpl_url": "http://ssd.jpl.nasa.gov/sbdb.cgi?sstr=3760342",
    "absolute_magnitude_h": 26.5,
    "estimated_diameter": {
        "kilometers": {
            "estimated_diameter_min": 0.0133215567,
            "estimated_diameter_max": 0.0297879063
        },
        "meters": {
            "estimated_diameter_min": 13.3215566698,
            "estimated_diameter_max": 29.7879062798
        },
        "miles": {
            "estimated_diameter_min": 0.008277629,
            "estimated_diameter_max": 0.0185093411
        },
        "feet": {
            "estimated_diameter_min": 43.7058959846,
            "estimated_diameter_max": 97.7293544391
        }
    },
    "is_potentially_hazardous_asteroid": false,
    "close_approach_data": [
        {
            "close_approach_date": "1974-12-10",
            "close_approach_date_full": "1974-Dec-10 07:14",
            "epoch_date_close_approach": 155891640000,
            "relative_velocity": {
                "kilometers_per_second": "18.6801758945",
                "kilometers_per_hour": "67248.6332200614",
                "miles_per_hour": "41785.6854583209"
            },
            "miss_distance": {
                "astronomical": "0.4727417716",
                "lunar": "183.8965491524",
                "kilometers": "70721162.091386492",
                "miles": "43944092.4089459096"
            },
            "orbiting_body": "Earth"
        },
        {
            "close_approach_date": "2016-10-04",
            "close_approach_date_full": "2016-Oct-04 02:06",
            "epoch_date_close_approach": 1475546760000,
            "relative_velocity": {
                "kilometers_per_second": "6.9248343017",
                "kilometers_per_hour": "24929.4034859908",
                "miles_per_hour": "15490.1618493924"
            },
            "miss_distance": {
                "astronomical": "0.0178491722",
                "lunar": "6.9433279858",
                "kilometers": "2670198.142383214",
                "miles": "1659184.1882837932"
            },
            "orbiting_body": "Earth"
        }
    ],
    "orbital_data": {
        "orbit_id": "3",
        "orbit_determination_date": "2017-04-06 08:23:24",
        "first_observation_date": "2016-10-04",
        "last_observation_date": "2016-10-09",
        "data_arc_in_days": 5,
        "observations_used": 36,
        "orbit_uncertainty": "7",
        "minimum_orbit_intersection": ".0140588",
        "jupiter_tisserand_invariant": "4.403",
        "epoch_osculation": "2459000.5",
        "eccentricity": ".3444967599773155",
        "semi_major_axis": "1.53230404581347",
        "inclination": "8.741056064492833",
        "ascending_node_longitude": "192.3519038237069",
        "orbital_period": "692.8127145348375",
        "perihelion_distance": "1.004430266730598",
        "perihelion_argument": "195.6537868407702",
        "aphelion_distance": "2.060177824896343",
        "perihelion_time": "2459065.786032995335",
        "mean_anomaly": "326.0760095979172",
        "mean_motion": ".5196209487028658",
        "equinox": "J2000",
        "orbit_class": {
            "orbit_class_type": "APO",
            "orbit_class_description": "Near-Earth asteroid orbits which cross the Earth’s orbit similar to that of 1862 Apollo",
            "orbit_class_range": "a (semi-major axis) > 1.0 AU; q (perihelion) < 1.017 AU"
        }
    },
    "is_sentry_object": false
}